{
    "links": {
        "self": "http://www.neowsapp.com/rest/v1/neo/3829458?api_key=iIulBulltgU6a56xZRHN4H3l9WmuAYTsLGpBGhQ2"
    },
    "id": "3829458",
    "neo_reference_id": "3829458",
    "name": "(2018 RD7)",
    "designation": "2018 RD7",
    "nasa_jpl_url": "http://ssd.jpl.nasa.gov/sbdb.cgi?sstr=3829458",
    "absolute_magnitude_h": 25.2,
    "estimated_diameter": {
        "kilometers": {
            "estimated_diameter_min": 0.0242412481,
            "estimated_diameter_max": 0.0542050786
        },
        "meters": {
            "estimated_diameter_min": 24.2412481101,
            "estimated_diameter_max": 54.2050786336
        },
        "miles": {
            "estimated_diameter_min": 0.0150628086,
            "estimated_diameter_max": 0.0336814639
        },
        "feet": {
            "estimated_diameter_min": 79.5316564495,
            "estimated_diameter_max": 177.8381901842
        }
    },
    "is_potentially_hazardous_asteroid": false,
    "close_approach_data": [
        {
            "close_approach_date": "1909-10-02",
            "close_approach_date_full": "1909-Oct-02 02:23",
            "epoch_date_close_approach": -1901309820000,
            "relative_velocity": {
                "kilometers_per_second": "13.7573506569",
                "kilometers_per_hour": "49526.4623649034",
                "miles_per_hour": "30773.817684459"
            },
            "miss_distance": {
                "astronomical": "0.230677455",
                "lunar": "89.733529995",
                "kilometers": "34508855.92502085",
                "miles": "21442808.75555373"
            },
            "orbiting_body": "Earth"
        },
        {
            "close_approach_date": "2018-09-09",
            "close_approach_date_full": "2018-Sep-09 21:41",
            "epoch_date_close_approach": 1536529260000,
            "relative_velocity": {
                "kilometers_per_second": "7.4806151897",
                "kilometers_per_hour": "26930.2146830054",
                "miles_per_hour": "16733.388117893"
            },
            "miss_distance": {
                "astronomical": "0.0365325904",
                "lunar": "14.2111776656",
                "kilometers": "5465197.709422448",
                "miles": "3395916.3858998624"
            },
            "orbiting_body": "Earth"
        },
        {
            "close_approach_date": "2098-01-23",
            "close_approach_date_full": "2098-Jan-23 15:14",
            "epoch_date_close_approach": 4041328440000,
            "relative_velocity": {
                "kilometers_per_second": "9.0499579813",
                "kilometers_per_hour": "32579.848732687",
                "miles_per_hour": "20243.8510083743"
            },
            "miss_distance": {
                "astronomical": "0.056191407",
                "lunar": "21.858457323",
                "kilometers": "8406114.79950309",
                "miles": "5223317.527959042"
            },
            "orbiting_body": "Mars"
        }
    ],
    "orbital_data": {
        "orbit_id": "12",
        "orbit_determination_date": "2018-11-03 06:47:19",
        "first_observation_date": "2018-09-13",
        "last_observation_date": "2018-10-17",
        "data_arc_in_days": 34,
        "observations_used": 87,
        "orbit_uncertainty": "7",
        "minimum_orbit_intersection": ".00948631",
        "jupiter_tisserand_invariant": "3.741",
        "epoch_osculation": "2459000.5",
        "eccentricity": ".4784410432559746",
        "semi_major_axis": "1.952307388076523",
        "inclination": "1.732862146378846",
        "ascending_node_longitude": "160.2057669114584",
        "orbital_period": "996.370185310649",
        "perihelion_distance": "1.018243404568844",
        "perihelion_argument": "167.6390745207183",
        "aphelion_distance": "2.886371371584202",
        "perihelion_time": "2459352.556926040142",
        "mean_anomaly": "232.797786161239",
        "mean_motion": ".3613114937675087",
        "equinox": "J2000",
        "orbit_class": {
            "orbit_class_type": "AMO",
            "orbit_class_description": "Near-Earth asteroid orbits similar to that of 1221 Amor",
            "orbit_class_range": "1.017 AU < q (perihelion) < 1.3 AU"
        }
    },
    "is_sentry_object": false
}